FLOCK 4V-23             
1 46737U 20061BM  23010.46911443  .00013249  00000+0  52822-3 0  9994
2 46737  97.3718  83.0670 0005069  89.9889 270.1930 15.25313434123176
FLOCK 4V-24             
1 46738U 20061BN  23010.42871470  .00034199  00000+0  12983-2 0  9996
2 46738  97.3806  83.9528 0006656 120.4276 239.3813 15.26734415122746
STARLINK-1848           
1 46740U 20074B   23010.67973574 -.00001041  00000+0 -50962-4 0  9991
2 46740  53.0526 107.1747 0001748  53.4661 306.6489 15.06398347122665
STARLINK-1865           
1 46741U 20074C   23010.63044385 -.00000738  00000+0 -30650-4 0  9991
2 46741  53.0553 102.4069 0002185  34.2349 325.8781 15.06395936122734
STARLINK-1872           
1 46742U 20074D   23010.40272765  .00063230  00000+0  84009-3 0  9992
2 46742  53.0517  67.3422 0001281 358.4668   1.6339 15.57633446123206
STARLINK-1892           
1 46743U 20074E   23010.62306977  .00000099  00000+0  25563-4 0  9995
2 46743  53.0553 102.4161 0001589  54.7551 305.3587 15.06402061122733
STARLINK-1894           
1 46744U 20074F   23010.57420699 -.00001158  00000+0 -58861-4 0  9994
2 46744  53.0531 102.6395 0001991  37.8469 322.2659 15.06399220122727
STARLINK-1905           
1 46746U 20074H   23010.52354554  .00002319  00000+0  17454-3 0  9997
2 46746  53.0535 102.8756 0002075  47.5417 312.5747 15.06403198122710
STARLINK-1908           
1 46747U 20074J   23010.63781164  .00000547  00000+0  55649-4 0  9991
2 46747  53.0527 102.3584 0001634  60.8342 299.2811 15.06397961122736
STARLINK-1910           
1 46748U 20074K   23010.64518989  .00001634  00000+0  12856-3 0  9996
2 46748  53.0532 102.3211 0001442  83.2056 276.9097 15.06408627122738
STARLINK-1911           
1 46749U 20074L   23010.58620768 -.00000008  00000+0  18365-4 0  9996
2 46749  53.0542 102.5992 0001930  47.0237 313.0913 15.06400225122724
STARLINK-1920           
1 46751U 20074N   23010.64887778  .00001957  00000+0  15023-3 0  9992
2 46751  53.0516 102.3183 0001323  72.2802 287.8331 15.06403026122737
STARLINK-1921           
1 46752U 20074P   23010.52723035  .00000704  00000+0  66171-4 0  9995
2 46752  53.0535 102.8624 0001596  58.7989 301.3156 15.06402930122719
STARLINK-1922           
1 46753U 20074Q   23010.62675876  .00000481  00000+0  51226-4 0  9993
2 46753  53.0540 102.4155 0001956  41.4677 318.6460 15.06387562122738
STARLINK-1923           
1 46754U 20074R   23010.63413514  .00000848  00000+0  75825-4 0  9992
2 46754  53.0545 102.3767 0001340  83.6608 276.4533 15.06403872122736
STARLINK-1924           
1 46755U 20074S   23010.50650054  .00000445  00000+0  48768-4 0  9990
2 46755  53.0547 107.9479 0002203  40.6283 319.4870 15.06396059122652
STARLINK-1925           
1 46756U 20074T   23010.66872471  .00002443  00000+0  18280-3 0  9992
2 46756  53.0542 107.6118 0001578  48.9076 311.2049 15.06407467122665
STARLINK-1926           
1 46757U 20074U   23010.68346260  .00001973  00000+0  15128-3 0  9992
2 46757  53.0542 107.3873 0001544  87.3271 272.7895 15.06407250122668
STARLINK-1928           
1 46758U 20074V   23010.68710708  .00001337  00000+0  10862-3 0  9999
2 46758  53.0563 107.1294 0001897  40.5102 319.6028 15.06405040122677
STARLINK-1833           
1 46759U 20074W   23010.68250032  .00000251  00000+0  35761-4 0  9999
2 46759  53.0540 117.1727 0001716  45.3838 314.7291 15.06399036122523
STARLINK-1896           
1 46760U 20074X   23010.56087020 -.00000560  00000+0 -18708-4 0  9990
2 46760  53.0539 117.7187 0001687  62.8167 297.2993 15.06395476122512
STARLINK-1902           
1 46763U 20074AA  23010.91667824  .00248865  00000+0  13235-2 0  9996
2 46763  53.0400 356.3871 0006328 294.2642 293.9410 15.79215251  1301
STARLINK-1903           
1 46764U 20074AB  23010.55350551  .00001196  00000+0  99161-4 0  9991
2 46764  53.0514 117.7459 0001361  88.6241 271.4903 15.06401181122526
STARLINK-1906           
1 46765U 20074AC  23010.67512837  .00001809  00000+0  14030-3 0  9994
2 46765  53.0541 117.1796 0001489  53.0829 307.0296 15.06398547122526
STARLINK-1916           
1 46766U 20074AD  23010.73410381  .00002139  00000+0  16245-3 0  9990
2 46766  53.0513 116.9350 0001392  56.8040 303.3083 15.06398242122545
STARLINK-1917           
1 46767U 20074AE  23010.49821996  .00001357  00000+0  11002-3 0  9999
2 46767  53.0528 117.9816 0001543  81.1285 278.9878 15.06392745122507
STARLINK-1918           
1 46768U 20074AF  23010.70093219  .00000692  00000+0  65397-4 0  9991
2 46768  53.0544 117.0746 0001961  42.3310 317.7830 15.06395901122531
STARLINK-1932           
1 46770U 20074AH  23010.70836856  .00000612  00000+0  59960-4 0  9997
2 46770  53.0541 117.6040 0001899  41.7528 318.3605 15.06401254122523
STARLINK-1936           
1 46772U 20074AK  23010.64100878  .00000630  00000+0  61192-4 0  9990
2 46772  53.0535 117.3422 0001720  51.5398 308.5746 15.06400044122529
STARLINK-1939           
1 46774U 20074AM  23010.60237060  .00085425  00000+0  28618-2 0  9991
2 46774  53.0561  88.8693 0000706 338.3900  21.7070 15.30215424122932
STARLINK-1946           
1 46776U 20074AP  23010.91667824  .00264207  00000+0  14058-2 0  9992
2 46776  53.0413   3.4695 0004103  46.3791 133.5187 15.79174486  1307
STARLINK-1798           
1 46779U 20074AS  23010.60555298  .00004306  00000+0  30780-3 0  9995
2 46779  53.0536  92.5093 0002218  42.4269 317.6891 15.06399136122862
STARLINK-1832           
1 46780U 20074AT  23010.59450156  .00000680  00000+0  64592-4 0  9992
2 46780  53.0540  92.5658 0002282  29.4861 330.6256 15.06403688122868
STARLINK-1834           
1 46781U 20074AU  23010.61200849  .00000826  00000+0  74331-4 0  9992
2 46781  53.0529 102.4804 0001749  60.6778 299.4385 15.06394974122739
STARLINK-1835           
1 46782U 20074AV  23010.64978885  .00001353  00000+0  10972-3 0  9994
2 46782  53.0537  92.3114 0002199  38.9313 321.1834 15.06397985122875
STARLINK-1851           
1 46783U 20074AW  23010.59818534 -.00000585  00000+0 -20382-4 0  9998
2 46783  53.0529  92.5372 0002224  38.0558 322.0588 15.06399142122868
STARLINK-1882           
1 46784U 20074AX  23010.60092863 -.00000293  00000+0 -74606-6 0  9996
2 46784  53.0565  92.5123 0002201  46.2439 313.8731 15.06397156122868
STARLINK-1883           
1 46785U 20074AY  23010.65348421 -.00002071  00000+0 -12018-3 0  9998
2 46785  53.0534  92.2861 0001820  43.7448 316.3685 15.06384991122879
STARLINK-1893           
1 46786U 20074AZ  23010.43416654  .00001076  00000+0  91101-4 0  9992
2 46786  53.0541  73.2847 0001860  49.9591 310.1561 15.06398612123121
STARLINK-1899           
1 46787U 20074BA  23010.55949421 -.00001076  00000+0 -53316-4 0  9997
2 46787  53.0566  72.7223 0002070  34.9091 325.2034 15.06405208123148
STARLINK-1929           
1 46788U 20074BB  23010.55211201  .00000611  00000+0  59950-4 0  9998
2 46788  53.0544  72.7381 0001923  25.6267 334.4817 15.06404506123149
STARLINK-1930           
1 46789U 20074BC  23010.50882128 -.00000228  00000+0  36172-5 0  9993
2 46789  53.0565 103.1138 0002000  34.4060 325.7058 15.06397696122711
STARLINK-1931           
1 46790U 20074BD  23010.53828932 -.00000661  00000+0 -25504-4 0  9999
2 46790  53.0544 102.7994 0001839  48.3872 311.7275 15.06396897122717
STARLINK-1933           
1 46791U 20074BE  23010.61938366 -.00000021  00000+0  17498-4 0  9994
2 46791  53.0559 102.4513 0001931  43.3262 316.7879 15.06398813122736
STARLINK-1934           
1 46792U 20074BF  23010.51341220  .00000052  00000+0  22381-4 0  9991
2 46792  53.0544  92.9297 0002118  34.1662 325.9463 15.06390696122858
STARLINK-1941           
1 46793U 20074BG  23010.60832230 -.00000003  00000+0  18690-4 0  9993
2 46793  53.0523 102.4998 0001897  44.8010 315.3132 15.06398621122727
STARLINK-1942           
1 46794U 20074BH  23010.61569916 -.00000165  00000+0  78147-5 0  9996
2 46794  53.0534 102.4586 0001917  22.4547 337.6525 15.06396803122737
STARLINK-1944           
1 46796U 20074BK  23010.59081767  .00001108  00000+0  93278-4 0  9996
2 46796  53.0536  92.5828 0001671  51.1468 308.9670 15.06402960122865
STARLINK-1948           
1 46798U 20074BM  23010.55623557  .00000655  00000+0  62881-4 0  9995
2 46798  53.0528 117.7237 0001529  73.8297 286.2860 15.06408178122513
COSMOS 2547 [GLONASS-K] 
1 46805U 20075A   23010.55290924  .00000065  00000+0  00000+0 0  9998
2 46805  64.6332 234.4781 0005594 244.3931 116.1167  2.13102963 17195
YAOGAN-30 U             
1 46807U 20076A   23010.61709972  .00002726  00000+0  27203-3 0  9990
2 46807  34.9956 103.4258 0001815   0.0668   0.0041 14.91173208120296
YAOGAN-30 V             
1 46808U 20076B   23010.59376379  .00002781  00000+0  27714-3 0  9997
2 46808  34.9962 103.2695 0002546 276.5919  83.4498 14.91219378120298
YAOGAN-30 W             
1 46809U 20076C   23010.63855040  .00002681  00000+0  26728-3 0  9993
2 46809  34.9974 102.7640 0007624 342.9573  17.0877 14.91202454120293
TIANQI-6                
1 46810U 20076D   23010.55955844  .00002851  00000+0  27349-3 0  9998
2 46810  35.0035  92.2210 0013696  43.4007 316.7778 14.92673748120403
FLOCK 4V-25             
1 46812U 20061BP  23010.45570865  .00021120  00000+0  79829-3 0  9999
2 46812  97.3716  83.1867 0006374  81.4036 278.7625 15.26982238122391
FLOCK 4E'-1             
1 46813U 20077A   23010.91331254  .00016720  00000+0  60687-3 0  9997
2 46813  97.3942  76.2950 0010634  49.8453 310.3716 15.28337073122087
FLOCK 4E'-7             
1 46814U 20077B   23010.93041903  .00024008  00000+0  86780-3 0  9999
2 46814  97.3946  76.4492 0011384  45.8338 314.3835 15.28388491122093
FLOCK 4E'-9             
1 46815U 20077C   23010.88252807  .00013080  00000+0  56110-3 0  9993
2 46815  97.3927  74.9740 0011701  45.3446 314.8743 15.22795149122011
FLOCK 4E'-8             
1 46816U 20077D   23010.89615469  .00023781  00000+0  78866-3 0  9993
2 46816  97.3961  77.5830 0008636  25.9022 334.2649 15.31223088122150
